#aV2022  3 10  0  0  0.00000000     288 DD+AD WGS84 FIT  NGA
## 2200 345600.00000000   300.00000000 59648 0.0000000000000
+   32     1  2  3  4  5  6  7  8  9 10 11 12 13 14 15 16 17
+         18 19 20 21 22 23 24 25 26 27 28 29 30 31 32  0  0
+          0  0  0  0  0  0  0  0  0  0  0  0  0  0  0  0  0
+          0  0  0  0  0  0  0  0  0  0  0  0  0  0  0  0  0
+          0  0  0  0  0  0  0  0  0  0  0  0  0  0  0  0  0
++         2  2  2  2  2  2  2  2  2  2  2  2  2  2  2  2  2
++         2  2  2  2  2  2  2  2  2  2  2  2  2  2  2  0  0
++         0  0  0  0  0  0  0  0  0  0  0  0  0  0  0  0  0
++         0  0  0  0  0  0  0  0  0  0  0  0  0  0  0  0  0
++         0  0  0  0  0  0  0  0  0  0  0  0  0  0  0  0  0
%c cc cc ccc ccc cccc cccc cccc cccc ccccc ccccc ccccc ccccc
%c cc cc ccc ccc cccc cccc cccc cccc ccccc ccccc ccccc ccccc
%f  0.0000000  0.000000000  0.00000000000  0.000000000000000
%f  0.0000000  0.000000000  0.00000000000  0.000000000000000
%i    0    0    0    0      0      0      0      0         0
%i    0    0    0    0      0      0      0      0         0
/*      NGA, ST. LOUIS,MO.                                  
/*   EPHEMERIS COMPUTED FROM 2 DAYS OF DATA                 
/*   EPOCHA v7 SMOOTHER                                     
/*   G2139 IERS2010 SATIGS SATAPC                           
*  2022  3 10 21 15  0.00000000
P  1  13295.773956  -8307.155390  21090.247465    412.058800                    
V  1   2988.868010  27295.645767   9088.434691     -0.091872                    
P  2 -14097.048249 -14480.953227 -16504.711518   -652.084895                    
V  2  -1833.921123 -22281.643336  20448.444611     -0.004855                    
P  3  22888.590289 -12578.054316   4390.545546   -157.529941                    
V  3  -3211.349218   5348.687806  31436.897316     -0.173195                    
P  4  20540.445553  -2717.667533 -16657.721145   -184.521306                    
V  4  18109.783932  11028.991685  20441.071123      0.025781                    
P  5 -20201.769138    132.499633 -17481.843201    -74.217569                    
V  5  16303.207667 -14601.527516 -18977.819095     -0.013468                    
P  6  -5571.440777 -25438.633159  -4938.695521    227.068260                    
V  6   1444.351194  -6511.940835  31549.879957      0.126304                    
P  7   6275.392185 -22615.312280 -11555.311713    315.302100                    
V  7   4462.371144  15135.369192 -26815.840833      0.020800                    
P  8  25047.634569   4821.529029   8001.033543    -59.328726                    
V  8   8375.149106   6071.872328 -29420.566794     -0.014759                    
P  9  10871.913088 -11709.887606 -21287.260471   -350.437286                    
V  9  24421.259603  11272.120217   6260.315002      0.019651                    
P 10  -3949.971235  18476.814677  18689.425933   -343.088086                    
V 10 -19952.111794  12510.181922 -16996.996767     -0.113055                    
P 11 -12596.548030 -15862.552390 -17191.155471    -65.734968                    
V 11    859.902114 -21862.694930  19533.060077      0.099802                    
P 12 -23874.247216   8874.247234   7019.147606   -182.929506                    
V 12   6613.198865  -7011.774727  30336.917252     -0.057499                    
P 13 -23062.195687 -13230.017840   1675.700948    274.717290                    
V 13   -647.880421  -3277.178790 -31733.926780      0.063293                    
P 14   5546.427974 -18787.961181  17895.432881    -92.548054                    
V 14  20054.438079 -10963.178170 -17791.478240     -0.038306                    
P 15 -25340.810352  -1805.954315   7877.040843    -77.787065                    
V 15  -9022.915598  -6331.351305 -28664.455887      0.029062                    
P 16  17714.623710   5185.652700 -19536.315240   -479.137317                    
V 16 -20341.616373  12863.947298 -14787.836722     -0.044584                    
P 17  -5048.842504 -17636.963913  19622.078218    585.538288                    
V 17  21577.889118  10451.523853  15333.931029      0.049341                    
P 18  -6546.148241  22716.764700 -12004.322543    222.793152                    
V 18  -3289.411834 -15056.958417 -26804.761418     -0.086472                    
P 19 -12725.548629 -18540.093336  14021.656548    129.317731                    
V 19  16455.297139   7822.946920  24635.382136      0.049924                    
P 20 -13843.727341  -8018.620523 -21173.097131    516.356160                    
V 20  18857.967642 -19321.004843  -5255.149096     -0.001762                    
P 21  16007.256947   3246.536452  21709.686203    159.213602                    
V 21   4238.155175  25574.842724  -6528.495382      0.004876                    
P 22  15083.704847  18403.801437  12392.376387    225.536059                    
V 22 -14114.472184  -5570.677734  26135.982689      0.058056                    
P 23 -14321.789692  19739.787942  10394.659387     -5.702724                    
V 23 -12001.529730   6063.792382 -28115.440277     -0.032709                    
P 24 -15160.429053   3956.554978  21135.278742    269.155292                    
V 24  -5100.047372 -27183.476343   1819.192209     -0.032464                    
P 25 -19075.296168  17735.937507  -4648.591841    296.534574                    
V 25  -6337.196274    771.418853  31120.006737      0.052066                    
P 26   7707.574555  13876.844552 -21358.069424    189.750243                    
V 26 -21485.642852  16417.051930   3233.188130      0.030627                    
P 27  23313.093375  12880.613600  -2964.493409    149.524848                    
V 27  -4008.034617    420.152033 -31480.265625      0.131311                    
P 28  -2725.300709 -15713.166669  21790.759851    383.319186                    
V 28  23030.948609 -12897.343987  -6355.280168     -0.082753                    
P 29 -13323.056972   8863.934033 -21257.796550   -489.802239                    
V 29 -23194.318004 -13451.105269   8892.370155     -0.045096                    
P 30    894.362730 -26111.127122  -3888.019652   -517.984753                    
V 30   4134.727682   4782.138085 -30834.313497     -0.021001                    
P 31   7083.639343  24223.570752  -7590.995183   -168.343940                    
V 31  -2484.389058   9801.006481  29904.248301     -0.017239                    
P 32   9803.228338  17775.712087  17360.505826    -82.311032                    
V 32 -20467.807257  -7433.165941  19133.622820     -0.073023                    
EOF
